{
    "links": {
        "self": "http://www.neowsapp.com/rest/v1/neo/3555165?api_key=iIulBulltgU6a56xZRHN4H3l9WmuAYTsLGpBGhQ2"
    },
    "id": "3555165",
    "neo_reference_id": "3555165",
    "name": "(2011 AT26)",
    "designation": "2011 AT26",
    "nasa_jpl_url": "http://ssd.jpl.nasa.gov/sbdb.cgi?sstr=3555165",
    "absolute_magnitude_h": 21.6,
    "estimated_diameter": {
        "kilometers": {
            "estimated_diameter_min": 0.1272198785,
            "estimated_diameter_max": 0.2844722965
        },
        "meters": {
            "estimated_diameter_min": 127.2198785394,
            "estimated_diameter_max": 284.4722965033
        },
        "miles": {
            "estimated_diameter_min": 0.0790507431,
            "estimated_diameter_max": 0.1767628354
        },
        "feet": {
            "estimated_diameter_min": 417.3880663071,
            "estimated_diameter_max": 933.3080892598
        }
    },
    "is_potentially_hazardous_asteroid": true,
    "close_approach_data": [
        {
            "close_approach_date": "2010-10-20",
            "close_approach_date_full": "2010-Oct-20 00:46",
            "epoch_date_close_approach": 1287535560000,
            "relative_velocity": {
                "kilometers_per_second": "11.1974858646",
                "kilometers_per_hour": "40310.949112708",
                "miles_per_hour": "25047.6561306157"
            },
            "miss_distance": {
                "astronomical": "0.0520045818",
                "lunar": "20.2297823202",
                "kilometers": "7779774.667520766",
                "miles": "4834127.8169119308"
            },
            "orbiting_body": "Venus"
        },
        {
            "close_approach_date": "2010-11-03",
            "close_approach_date_full": "2010-Nov-03 13:01",
            "epoch_date_close_approach": 1288789260000,
            "relative_velocity": {
                "kilometers_per_second": "14.1724404576",
                "kilometers_per_hour": "51020.7856473262",
                "miles_per_hour": "31702.3320595844"
            },
            "miss_distance": {
                "astronomical": "0.2232349005",
                "lunar": "86.8383762945",
                "kilometers": "33395465.624461935",
                "miles": "20750980.103307303"
            },
            "orbiting_body": "Earth"
        }
    ],
    "orbital_data": {
        "orbit_id": "7",
        "orbit_determination_date": "2017-04-06 08:54:59",
        "first_observation_date": "2011-01-11",
        "last_observation_date": "2011-01-28",
        "data_arc_in_days": 17,
        "observations_used": 26,
        "orbit_uncertainty": "8",
        "minimum_orbit_intersection": ".00585873",
        "jupiter_tisserand_invariant": "3.123",
        "epoch_osculation": "2455574.5",
        "eccentricity": ".7002280765240561",
        "semi_major_axis": "2.420066415977508",
        "inclination": "1.719170108266274",
        "ascending_node_longitude": "245.4007840695814",
        "orbital_period": "1375.116059787581",
        "perihelion_distance": ".7254679644571115",
        "perihelion_argument": "122.6268008771054",
        "aphelion_distance": "4.114664867497905",
        "perihelion_time": "2455483.030248391948",
        "mean_anomaly": "23.94642280883942",
        "mean_motion": ".2617960843651339",
        "equinox": "J2000",
        "orbit_class": {
            "orbit_class_type": "APO",
            "orbit_class_description": "Near-Earth asteroid orbits which cross the Earth’s orbit similar to that of 1862 Apollo",
            "orbit_class_range": "a (semi-major axis) > 1.0 AU; q (perihelion) < 1.017 AU"
        }
    },
    "is_sentry_object": false
}